{
  "type": "FeatureCollection",
  "features": [
    {
      "type": "Feature",
      "properties": {
        "norad_id": 35239,
        "name": "FENGYUN 1C DEB",
        "group": "fengyun-1c-debris",
        "lat": -58.519493764673896,
        "lon": 160.64242943930014,
        "alt_km": 965.2713834305359,
        "timestamp": "2025-12-10T09:57:44.987007+00:00",
        "meta_object_name": "FENGYUN 1C DEB",
        "meta_object_id": "1999-025DQX",
        "meta_epoch": "2025-12-09T16:42:28.363104",
        "meta_mean_motion": 13.69206975,
        "meta_eccentricity": 0.0229669,
        "meta_inclination": 99.266,
        "meta_ra_of_asc_node": 144.4888,
        "meta_arg_of_pericenter": 18.3208,
        "meta_mean_anomaly": 342.6043,
        "meta_ephemeris_type": 0,
        "meta_classification_type": "U",
        "meta_norad_cat_id": 35239,
        "meta_element_set_no": 999,
        "meta_rev_at_epoch": 58089,
        "meta_bstar": 0.0012904,
        "meta_mean_motion_dot": 1.303e-05,
        "meta_mean_motion_ddot": 0,
        "tle_line1": "1 35239U 99025DQX 25343.69616161  .00001303  00000+0  12904-2 0  9994",
        "tle_line2": "2 35239  99.2660 144.4888 0229669  18.3208 342.6043 13.69206975580899"
      },
      "geometry": {
        "type": "Point",
        "coordinates": [
          160.64242943930014,
          -58.519493764673896
        ]
      }
    },
    {
      "type": "Feature",
      "properties": {
        "norad_id": 35240,
        "name": "FENGYUN 1C DEB",
        "group": "fengyun-1c-debris",
        "lat": 40.30588571071346,
        "lon": -61.33499780818519,
        "alt_km": 826.1670475590927,
        "timestamp": "2025-12-10T09:57:44.987017+00:00",
        "meta_object_name": "FENGYUN 1C DEB",
        "meta_object_id": "1999-025DQY",
        "meta_epoch": "2025-12-09T20:16:18.281856",
        "meta_mean_motion": 14.23262042,
        "meta_eccentricity": 0.0045988,
        "meta_inclination": 99.3526,
        "meta_ra_of_asc_node": 306.0952,
        "meta_arg_of_pericenter": 160.0016,
        "meta_mean_anomaly": 200.2975,
        "meta_ephemeris_type": 0,
        "meta_classification_type": "U",
        "meta_norad_cat_id": 35240,
        "meta_element_set_no": 999,
        "meta_rev_at_epoch": 93123,
        "meta_bstar": 0.0029296,
        "meta_mean_motion_dot": 6.661e-05,
        "meta_mean_motion_ddot": 0,
        "tle_line1": "1 35240U 99025DQY 25343.84465604  .00006661  00000+0  29296-2 0  9991",
        "tle_line2": "2 35240  99.3526 306.0952 0045988 160.0016 200.2975 14.23262042931232"
      },
      "geometry": {
        "type": "Point",
        "coordinates": [
          -61.33499780818519,
          40.30588571071346
        ]
      }
    },
    {
      "type": "Feature",
      "properties": {
        "norad_id": 35241,
        "name": "FENGYUN 1C DEB",
        "group": "fengyun-1c-debris",
        "lat": 18.66329456433581,
        "lon": 96.53318815336124,
        "alt_km": 829.0780576530988,
        "timestamp": "2025-12-10T09:57:44.987027+00:00",
        "meta_object_name": "FENGYUN 1C DEB",
        "meta_object_id": "1999-025DQZ",
        "meta_epoch": "2025-11-30T05:56:44.334240",
        "meta_mean_motion": 14.01843685,
        "meta_eccentricity": 0.01367336,
        "meta_inclination": 98.628,
        "meta_ra_of_asc_node": 263.9706,
        "meta_arg_of_pericenter": 244.1586,
        "meta_mean_anomaly": 114.5426,
        "meta_ephemeris_type": 0,
        "meta_classification_type": "U",
        "meta_norad_cat_id": 35241,
        "meta_element_set_no": 999,
        "meta_rev_at_epoch": 87431,
        "meta_bstar": 0.001716208,
        "meta_mean_motion_dot": 2.791e-05,
        "meta_mean_motion_ddot": 0,
        "tle_line1": "1 35241U 99025DQZ 25334.24773535  .00002791  00000+0  17162-2 0  9990",
        "tle_line2": "2 35241  98.6280 263.9706 0136733 244.1586 114.5426 14.01843685874312"
      },
      "geometry": {
        "type": "Point",
        "coordinates": [
          96.53318815336124,
          18.66329456433581
        ]
      }
    },
    {
      "type": "Feature",
      "properties": {
        "norad_id": 35242,
        "name": "FENGYUN 1C DEB",
        "group": "fengyun-1c-debris",
        "lat": -48.13382414471865,
        "lon": 48.26477853439854,
        "alt_km": 1164.826553516793,
        "timestamp": "2025-12-10T09:57:44.987037+00:00",
        "meta_object_name": "FENGYUN 1C DEB",
        "meta_object_id": "1999-025DRA",
        "meta_epoch": "2025-12-09T15:26:53.963232",
        "meta_mean_motion": 13.52332883,
        "meta_eccentricity": 0.0301834,
        "meta_inclination": 99.9692,
        "meta_ra_of_asc_node": 36.171,
        "meta_arg_of_pericenter": 196.4444,
        "meta_mean_anomaly": 317.6855,
        "meta_ephemeris_type": 0,
        "meta_classification_type": "U",
        "meta_norad_cat_id": 35242,
        "meta_element_set_no": 999,
        "meta_rev_at_epoch": 58085,
        "meta_bstar": 0.0024719,
        "meta_mean_motion_dot": 2.128e-05,
        "meta_mean_motion_ddot": 0,
        "tle_line1": "1 35242U 99025DRA 25343.64368013  .00002128  00000+0  24719-2 0  9996",
        "tle_line2": "2 35242  99.9692  36.1710 0301834 196.4444 317.6855 13.52332883580850"
      },
      "geometry": {
        "type": "Point",
        "coordinates": [
          48.26477853439854,
          -48.13382414471865
        ]
      }
    },
    {
      "type": "Feature",
      "properties": {
        "norad_id": 35243,
        "name": "FENGYUN 1C DEB",
        "group": "fengyun-1c-debris",
        "lat": -44.333583079670944,
        "lon": 71.80194721238966,
        "alt_km": 585.3828784373245,
        "timestamp": "2025-12-10T09:57:44.987047+00:00",
        "meta_object_name": "FENGYUN 1C DEB",
        "meta_object_id": "1999-025DRB",
        "meta_epoch": "2025-12-09T16:23:47.497632",
        "meta_mean_motion": 14.86738891,
        "meta_eccentricity": 0.0065918,
        "meta_inclination": 98.8792,
        "meta_ra_of_asc_node": 62.1993,
        "meta_arg_of_pericenter": 266.6452,
        "meta_mean_anomaly": 92.7218,
        "meta_ephemeris_type": 0,
        "meta_classification_type": "U",
        "meta_norad_cat_id": 35243,
        "meta_element_set_no": 999,
        "meta_rev_at_epoch": 90955,
        "meta_bstar": 0.0032741,
        "meta_mean_motion_dot": 0.00030361,
        "meta_mean_motion_ddot": 0,
        "tle_line1": "1 35243U 99025DRB 25343.68318863  .00030361  00000+0  32741-2 0  9993",
        "tle_line2": "2 35243  98.8792  62.1993 0065918 266.6452  92.7218 14.86738891909554"
      },
      "geometry": {
        "type": "Point",
        "coordinates": [
          71.80194721238966,
          -44.333583079670944
        ]
      }
    },
    {
      "type": "Feature",
      "properties": {
        "norad_id": 35244,
        "name": "FENGYUN 1C DEB",
        "group": "fengyun-1c-debris",
        "lat": -67.73325502542072,
        "lon": -177.65407426756016,
        "alt_km": 873.807686806791,
        "timestamp": "2025-12-10T09:57:44.987057+00:00",
        "meta_object_name": "FENGYUN 1C DEB",
        "meta_object_id": "1999-025DRC",
        "meta_epoch": "2025-12-09T14:00:22.441248",
        "meta_mean_motion": 14.06620234,
        "meta_eccentricity": 0.0071886,
        "meta_inclination": 98.841,
        "meta_ra_of_asc_node": 23.8743,
        "meta_arg_of_pericenter": 166.1663,
        "meta_mean_anomaly": 194.1497,
        "meta_ephemeris_type": 0,
        "meta_classification_type": "U",
        "meta_norad_cat_id": 35244,
        "meta_element_set_no": 999,
        "meta_rev_at_epoch": 65777,
        "meta_bstar": 0.00072903,
        "meta_mean_motion_dot": 1.194e-05,
        "meta_mean_motion_ddot": 0,
        "tle_line1": "1 35244U 99025DRC 25343.58359307  .00001194  00000+0  72903-3 0  9998",
        "tle_line2": "2 35244  98.8410  23.8743 0071886 166.1663 194.1497 14.06620234657771"
      },
      "geometry": {
        "type": "Point",
        "coordinates": [
          -177.65407426756016,
          -67.73325502542072
        ]
      }
    },
    {
      "type": "Feature",
      "properties": {
        "norad_id": 35245,
        "name": "FENGYUN 1C DEB",
        "group": "fengyun-1c-debris",
        "lat": 80.84512331138824,
        "lon": -27.0076678134804,
        "alt_km": 883.7632225354073,
        "timestamp": "2025-12-10T09:57:44.987067+00:00",
        "meta_object_name": "FENGYUN 1C DEB",
        "meta_object_id": "1999-025DRD",
        "meta_epoch": "2025-12-10T04:34:11.975232",
        "meta_mean_motion": 14.13061673,
        "meta_eccentricity": 0.0058855,
        "meta_inclination": 99.0839,
        "meta_ra_of_asc_node": 69.6712,
        "meta_arg_of_pericenter": 277.6161,
        "meta_mean_anomaly": 111.0496,
        "meta_ephemeris_type": 0,
        "meta_classification_type": "U",
        "meta_norad_cat_id": 35245,
        "meta_element_set_no": 999,
        "meta_rev_at_epoch": 87741,
        "meta_bstar": 0.0024432,
        "meta_mean_motion_dot": 4.593e-05,
        "meta_mean_motion_ddot": 0,
        "tle_line1": "1 35245U 99025DRD 25344.19041638  .00004593  00000+0  24432-2 0  9991",
        "tle_line2": "2 35245  99.0839  69.6712 0058855 277.6161 111.0496 14.13061673877412"
      },
      "geometry": {
        "type": "Point",
        "coordinates": [
          -27.0076678134804,
          80.84512331138824
        ]
      }
    }
  ]
}